CCSDS_OMM_VERS = 2.0
CREATION_DATE  = 
ORIGINATOR     = 

OBJECT_NAME    = IDEFIX & ARIANE 42P R/B
OBJECT_ID      = 2002-021B
CENTER_NAME    = EARTH
REF_FRAME      = TEME
TIME_SYSTEM    = UTC
MEAN_ELEMENT_THEORY = SGP/SGP4

EPOCH          = 2026-02-24T10:05:55.492224
MEAN_MOTION    = 14.31015559
ECCENTRICITY   = .00108857
INCLINATION    = 98.5858
RA_OF_ASC_NODE = 354.1869
ARG_OF_PERICENTER = 223.1821
MEAN_ANOMALY   = 136.8509

EPHEMERIS_TYPE = 0
CLASSIFICATION_TYPE = U
NORAD_CAT_ID   = 27422
ELEMENT_SET_NO = 999
REV_AT_EPOCH   = 24212
BSTAR          = .12419474E-3
MEAN_MOTION_DOT = .283E-5
MEAN_MOTION_DDOT = 0

CCSDS_OMM_VERS = 2.0
CREATION_DATE  = 
ORIGINATOR     = 

OBJECT_NAME    = AQUA
OBJECT_ID      = 2002-022A
CENTER_NAME    = EARTH
REF_FRAME      = TEME
TIME_SYSTEM    = UTC
MEAN_ELEMENT_THEORY = SGP/SGP4

EPOCH          = 2026-02-24T13:11:32.987904
MEAN_MOTION    = 14.61940323
ECCENTRICITY   = .000092
INCLINATION    = 98.4150
RA_OF_ASC_NODE = 22.6779
ARG_OF_PERICENTER = 48.7929
MEAN_ANOMALY   = 43.6855

EPHEMERIS_TYPE = 0
CLASSIFICATION_TYPE = U
NORAD_CAT_ID   = 27424
ELEMENT_SET_NO = 999
REV_AT_EPOCH   = 26681
BSTAR          = .21843267E-3
MEAN_MOTION_DOT = .1044E-4
MEAN_MOTION_DDOT = 0

CCSDS_OMM_VERS = 2.0
CREATION_DATE  = 
ORIGINATOR     = 

OBJECT_NAME    = CZ-4B R/B
OBJECT_ID      = 2002-024C
CENTER_NAME    = EARTH
REF_FRAME      = TEME
TIME_SYSTEM    = UTC
MEAN_ELEMENT_THEORY = SGP/SGP4

EPOCH          = 2026-02-24T03:08:51.309888
MEAN_MOTION    = 14.14544903
ECCENTRICITY   = .00510289
INCLINATION    = 98.8872
RA_OF_ASC_NODE = 108.6042
ARG_OF_PERICENTER = 62.2489
MEAN_ANOMALY   = 323.2269

EPHEMERIS_TYPE = 0
CLASSIFICATION_TYPE = U
NORAD_CAT_ID   = 27432
ELEMENT_SET_NO = 999
REV_AT_EPOCH   = 22732
BSTAR          = .34465697E-4
MEAN_MOTION_DOT = .23E-6
MEAN_MOTION_DDOT = 0

CCSDS_OMM_VERS = 2.0
CREATION_DATE  = 
ORIGINATOR     = 

OBJECT_NAME    = MIDORI II (ADEOS-II)
OBJECT_ID      = 2002-056A
CENTER_NAME    = EARTH
REF_FRAME      = TEME
TIME_SYSTEM    = UTC
MEAN_ELEMENT_THEORY = SGP/SGP4

EPOCH          = 2026-02-24T12:03:57.554208
MEAN_MOTION    = 14.29273701
ECCENTRICITY   = .00019952
INCLINATION    = 98.7744
RA_OF_ASC_NODE = 13.8914
ARG_OF_PERICENTER = 61.2642
MEAN_ANOMALY   = 298.8740

EPHEMERIS_TYPE = 0
CLASSIFICATION_TYPE = U
NORAD_CAT_ID   = 27597
ELEMENT_SET_NO = 999
REV_AT_EPOCH   = 20841
BSTAR          = .12140119E-3
MEAN_MOTION_DOT = .263E-5
MEAN_MOTION_DDOT = 0

CCSDS_OMM_VERS = 2.0
CREATION_DATE  = 
ORIGINATOR     = 

OBJECT_NAME    = H-2A R/B
OBJECT_ID      = 2002-056E
CENTER_NAME    = EARTH
REF_FRAME      = TEME
TIME_SYSTEM    = UTC
MEAN_ELEMENT_THEORY = SGP/SGP4

EPOCH          = 2026-02-24T12:39:57.231072
MEAN_MOTION    = 14.33750766
ECCENTRICITY   = .00696769
INCLINATION    = 98.3177
RA_OF_ASC_NODE = 16.3964
ARG_OF_PERICENTER = 199.9324
MEAN_ANOMALY   = 273.7598

EPHEMERIS_TYPE = 0
CLASSIFICATION_TYPE = U
NORAD_CAT_ID   = 27601
ELEMENT_SET_NO = 999
REV_AT_EPOCH   = 21222
BSTAR          = .11392292E-3
MEAN_MOTION_DOT = .283E-5
MEAN_MOTION_DDOT = 0

CCSDS_OMM_VERS = 2.0
CREATION_DATE  = 
ORIGINATOR     = 

OBJECT_NAME    = CZ-4B R/B
OBJECT_ID      = 2003-049C
CENTER_NAME    = EARTH
REF_FRAME      = TEME
TIME_SYSTEM    = UTC
MEAN_ELEMENT_THEORY = SGP/SGP4

EPOCH          = 2026-02-24T12:34:23.676960
MEAN_MOTION    = 14.55005000
ECCENTRICITY   = .00469957
INCLINATION    = 98.6866
RA_OF_ASC_NODE = 49.9136
ARG_OF_PERICENTER = 272.0373
MEAN_ANOMALY   = 87.5441

EPHEMERIS_TYPE = 0
CLASSIFICATION_TYPE = U
NORAD_CAT_ID   = 28059
ELEMENT_SET_NO = 999
REV_AT_EPOCH   = 18468
BSTAR          = .10591324E-3
MEAN_MOTION_DOT = .411E-5
MEAN_MOTION_DDOT = 0

CCSDS_OMM_VERS = 2.0
CREATION_DATE  = 
ORIGINATOR     = 

OBJECT_NAME    = CZ-2C R/B
OBJECT_ID      = 2004-012C
CENTER_NAME    = EARTH
REF_FRAME      = TEME
TIME_SYSTEM    = UTC
MEAN_ELEMENT_THEORY = SGP/SGP4

EPOCH          = 2026-02-24T04:04:38.804448
MEAN_MOTION    = 15.62819312
ECCENTRICITY   = .00140903
INCLINATION    = 97.7264
RA_OF_ASC_NODE = 119.1976
ARG_OF_PERICENTER = 3.8799
MEAN_ANOMALY   = 356.2565

EPHEMERIS_TYPE = 0
CLASSIFICATION_TYPE = U
NORAD_CAT_ID   = 28222
ELEMENT_SET_NO = 999
REV_AT_EPOCH   = 20216
BSTAR          = .5390125E-3
MEAN_MOTION_DOT = .4884E-3
MEAN_MOTION_DDOT = 0

CCSDS_OMM_VERS = 2.0
CREATION_DATE  = 
ORIGINATOR     = 

OBJECT_NAME    = SL-16 R/B
OBJECT_ID      = 2004-021B
CENTER_NAME    = EARTH
REF_FRAME      = TEME
TIME_SYSTEM    = UTC
MEAN_ELEMENT_THEORY = SGP/SGP4

EPOCH          = 2026-02-24T14:05:46.525056
MEAN_MOTION    = 14.14599000
ECCENTRICITY   = .00033835
INCLINATION    = 70.9989
RA_OF_ASC_NODE = 259.9907
ARG_OF_PERICENTER = 39.4601
MEAN_ANOMALY   = 320.6767

EPHEMERIS_TYPE = 0
CLASSIFICATION_TYPE = U
NORAD_CAT_ID   = 28353
ELEMENT_SET_NO = 999
REV_AT_EPOCH   = 12098
BSTAR          = .82046423E-4
MEAN_MOTION_DOT = .11E-5
MEAN_MOTION_DDOT = 0

CCSDS_OMM_VERS = 2.0
CREATION_DATE  = 
ORIGINATOR     = 

OBJECT_NAME    = CZ-4B R/B
OBJECT_ID      = 2004-035C
CENTER_NAME    = EARTH
REF_FRAME      = TEME
TIME_SYSTEM    = UTC
MEAN_ELEMENT_THEORY = SGP/SGP4

EPOCH          = 2026-02-24T08:40:44.158080
MEAN_MOTION    = 15.28792067
ECCENTRICITY   = .00326778
INCLINATION    = 97.3529
RA_OF_ASC_NODE = 89.7656
ARG_OF_PERICENTER = 19.2746
MEAN_ANOMALY   = 340.9722

EPHEMERIS_TYPE = 0
CLASSIFICATION_TYPE = U
NORAD_CAT_ID   = 28415
ELEMENT_SET_NO = 999
REV_AT_EPOCH   = 17787
BSTAR          = .30720243E-3
MEAN_MOTION_DOT = .8659E-4
MEAN_MOTION_DDOT = 0

CCSDS_OMM_VERS = 2.0
CREATION_DATE  = 
ORIGINATOR     = 

OBJECT_NAME    = CZ-2C R/B
OBJECT_ID      = 2004-046B
CENTER_NAME    = EARTH
REF_FRAME      = TEME
TIME_SYSTEM    = UTC
MEAN_ELEMENT_THEORY = SGP/SGP4

EPOCH          = 2026-02-24T12:19:30.186912
MEAN_MOTION    = 14.26987138
ECCENTRICITY   = .01390813
INCLINATION    = 98.1989
RA_OF_ASC_NODE = 331.3167
ARG_OF_PERICENTER = 193.3740
MEAN_ANOMALY   = 166.3741

EPHEMERIS_TYPE = 0
CLASSIFICATION_TYPE = U
NORAD_CAT_ID   = 28480
ELEMENT_SET_NO = 999
REV_AT_EPOCH   = 10662
BSTAR          = .56960977E-4
MEAN_MOTION_DOT = .112E-5
MEAN_MOTION_DDOT = 0

CCSDS_OMM_VERS = 2.0
CREATION_DATE  = 
ORIGINATOR     = 

OBJECT_NAME    = ARIANE 5 R/B
OBJECT_ID      = 2004-049H
CENTER_NAME    = EARTH
REF_FRAME      = TEME
TIME_SYSTEM    = UTC
MEAN_ELEMENT_THEORY = SGP/SGP4

EPOCH          = 2026-02-24T10:16:51.284640
MEAN_MOTION    = 14.85237559
ECCENTRICITY   = .00848632
INCLINATION    = 98.2606
RA_OF_ASC_NODE = 223.3912
ARG_OF_PERICENTER = 34.8094
MEAN_ANOMALY   = 325.8630

EPHEMERIS_TYPE = 0
CLASSIFICATION_TYPE = U
NORAD_CAT_ID   = 28499
ELEMENT_SET_NO = 999
REV_AT_EPOCH   = 14382
BSTAR          = .97110653E-4
MEAN_MOTION_DOT = .824E-5
MEAN_MOTION_DDOT = 0

CCSDS_OMM_VERS = 2.0
CREATION_DATE  = 
ORIGINATOR     = 

OBJECT_NAME    = CZ-2D R/B
OBJECT_ID      = 2005-024B
CENTER_NAME    = EARTH
REF_FRAME      = TEME
TIME_SYSTEM    = UTC
MEAN_ELEMENT_THEORY = SGP/SGP4

EPOCH          = 2026-02-24T11:47:07.360224
MEAN_MOTION    = 15.58860801
ECCENTRICITY   = .0007462
INCLINATION    = 97.3617
RA_OF_ASC_NODE = 70.1667
ARG_OF_PERICENTER = 78.4118
MEAN_ANOMALY   = 281.7975

EPHEMERIS_TYPE = 0
CLASSIFICATION_TYPE = U
NORAD_CAT_ID   = 28738
ELEMENT_SET_NO = 999
REV_AT_EPOCH   = 13772
BSTAR          = .4883825E-3
MEAN_MOTION_DOT = .37837E-3
MEAN_MOTION_DDOT = 0

