IDEFIX & ARIANE 42P R/B 
1 27422U 02021B   26055.42078116  .00000283  00000+0  12419-3 0  9991
2 27422  98.5858 354.1869 0010885 223.1821 136.8509 14.31015559242126
AQUA                    
1 27424U 02022A   26055.54968736  .00001044  00000+0  21843-3 0  9990
2 27424  98.4150  22.6779 0000920  48.7929  43.6855 14.61940323266818
CZ-4B R/B               
1 27432U 02024C   26055.13114942  .00000023  00000+0  34466-4 0  9990
2 27432  98.8872 108.6042 0051028  62.2489 323.2269 14.14544903227328
MIDORI II (ADEOS-II)    
1 27597U 02056A   26055.50274947  .00000263  00000+0  12140-3 0  9990
2 27597  98.7744  13.8914 0001995  61.2642 298.8740 14.29273701208411
H-2A R/B                
1 27601U 02056E   26055.52774573  .00000283  00000+0  11392-3 0  9998
2 27601  98.3177  16.3964 0069676 199.9324 273.7598 14.33750766212225
CZ-4B R/B               
1 28059U 03049C   26055.52388515  .00000411  00000+0  10591-3 0  9999
2 28059  98.6866  49.9136 0046995 272.0373  87.5441 14.55005000184684
CZ-2C R/B               
1 28222U 04012C   26055.16989357  .00048840  00000+0  53901-3 0  9993
2 28222  97.7264 119.1976 0014090   3.8799 356.2565 15.62819312202168
SL-16 R/B               
1 28353U 04021B   26055.58734404  .00000110  00000+0  82046-4 0  9996
2 28353  70.9989 259.9907 0003383  39.4601 320.6767 14.14599000120980
CZ-4B R/B               
1 28415U 04035C   26055.36162220  .00008659  00000+0  30720-3 0  9994
2 28415  97.3529  89.7656 0032677  19.2746 340.9722 15.28792067177876
CZ-2C R/B               
1 28480U 04046B   26055.51354383  .00000112  00000+0  56961-4 0  9990
2 28480  98.1989 331.3167 0139081 193.3740 166.3741 14.26987138106623
ARIANE 5 R/B            
1 28499U 04049H   26055.42837135  .00000824  00000+0  97111-4 0  9996
2 28499  98.2606 223.3912 0084863  34.8094 325.8630 14.85237559143828
CZ-2D R/B               
1 28738U 05024B   26055.49105741  .00037837  00000+0  48838-3 0  9999
2 28738  97.3617  70.1667 0007462  78.4118 281.7975 15.58860801137729
